[{"OBJECT_NAME":"STARLINK-31529","OBJECT_ID":"2024-036C","EPOCH":"2026-03-09T07:02:47.727744","MEAN_MOTION":15.30193147,"ECCENTRICITY":0.00011253,"INCLINATION":53.1606,"RA_OF_ASC_NODE":77.7713,"ARG_OF_PERICENTER":89.5287,"MEAN_ANOMALY":270.5843,"EPHEMERIS_TYPE":0,"CLASSIFICATION_TYPE":"U","NORAD_CAT_ID":59000,"ELEMENT_SET_NO":999,"REV_AT_EPOCH":11521,"BSTAR":3.0341698e-5,"MEAN_MOTION_DOT":5.39e-6,"MEAN_MOTION_DDOT":0},{"OBJECT_NAME":"OBJECT N","OBJECT_ID":"2019-093N","EPOCH":"2026-03-09T21:41:56.087232","MEAN_MOTION":15.29897693,"ECCENTRICITY":0.0006278,"INCLINATION":98.0505,"RA_OF_ASC_NODE":226.9456,"ARG_OF_PERICENTER":33.3806,"MEAN_ANOMALY":326.7828,"EPHEMERIS_TYPE":0,"CLASSIFICATION_TYPE":"U","NORAD_CAT_ID":44891,"ELEMENT_SET_NO":999,"REV_AT_EPOCH":33957,"BSTAR":0.0010567776,"MEAN_MOTION_DOT":0.00030617,"MEAN_MOTION_DDOT":0}]
